[{"OBJECT_NAME":"STARLINK-34810","OBJECT_ID":"2025-165N","EPOCH":"2026-03-09T17:25:30.860832","MEAN_MOTION":15.0565435,"ECCENTRICITY":0.00011921,"INCLINATION":97.6017,"RA_OF_ASC_NODE":147.2304,"ARG_OF_PERICENTER":108.3735,"MEAN_ANOMALY":251.7622,"EPHEMERIS_TYPE":0,"CLASSIFICATION_TYPE":"U","NORAD_CAT_ID":65068,"ELEMENT_SET_NO":999,"REV_AT_EPOCH":3479,"BSTAR":0.00027894492,"MEAN_MOTION_DOT":3.967e-5,"MEAN_MOTION_DDOT":0},{"OBJECT_NAME":"ELECTRON KICK STAGE R\/B","OBJECT_ID":"2025-229C","EPOCH":"2026-03-09T11:01:34.584384","MEAN_MOTION":15.04670102,"ECCENTRICITY":0.00392514,"INCLINATION":41.9818,"RA_OF_ASC_NODE":119.4948,"ARG_OF_PERICENTER":118.9737,"MEAN_ANOMALY":241.5033,"EPHEMERIS_TYPE":0,"CLASSIFICATION_TYPE":"U","NORAD_CAT_ID":65973,"ELEMENT_SET_NO":999,"REV_AT_EPOCH":2194,"BSTAR":0.00045211532,"MEAN_MOTION_DOT":6.384e-5,"MEAN_MOTION_DDOT":0}]
